NORAD_CAT_ID,OBJECT_NAME,OBJECT_TYPE,EPOCH,MEAN_MOTION,ECCENTRICITY,INCLINATION,RA_OF_ASC_NODE,ARG_OF_PERICENTER,MEAN_ANOMALY,BSTAR,MEAN_MOTION_DOT,MEAN_MOTION_DDOT,TLE_LINE0,TLE_LINE1,TLE_LINE2,SEMIMAJOR_AXIS,PERIOD,APOGEE,PERIGEE,DECAYED
52502.0,STARLINK-3912,PAYLOAD,2024-03-06 12:10:06,15.08853751,0.0001441,53.2154,90.5335,109.2006,250.9142,0.00055148,8.503e-05,0.0,0 STARLINK-3912,1 52502U 22049BD  24066.50701831  .00008503  00000-0  55148-3 0  9996,2 52502  53.2154  90.5335 0001441 109.2006 250.9142 15.08853751101849,6917.838,95.437,540.7,538.706,0.0
52502.0,STARLINK-3912,PAYLOAD,2024-03-06 18:31:39,15.0884743,0.0001672,53.2167,89.3432,97.8615,262.2567,0.00037436,5.676e-05,0.0,0 STARLINK-3912,1 52502U 22049BD  24066.77198122  .00005676  00000-0  37436-3 0  9996,2 52502  53.2167  89.3432 0001672  97.8615 262.2567 15.08847430102048,6917.858,95.437,540.879,538.566,0.0
52502.0,STARLINK-3912,PAYLOAD,2024-03-07 10:25:30,15.08838563,0.0001657,53.2166,86.3693,97.4653,262.6527,0.00016743,2.378e-05,0.0,0 STARLINK-3912,1 52502U 22049BD  24067.43438437  .00002378  00000-0  16743-3 0  9990,2 52502  53.2166  86.3693 0001657  97.4653 262.6527 15.08838563101983,6917.885,95.438,540.896,538.603,0.0
52502.0,STARLINK-3912,PAYLOAD,2024-03-08 00:43:58,15.08841255,0.000156,53.2157,83.6951,97.038,263.079,2.7017e-05,1.42e-06,0.0,0 STARLINK-3912,1 52502U 22049BD  24068.03054326  .00000142  00000-0  27017-4 0  9992,2 52502  53.2157  83.6951 0001560  97.0380 263.0790 15.08841255102234,6917.877,95.437,540.821,538.662,0.0
52502.0,STARLINK-3912,PAYLOAD,2024-03-08 08:40:54,15.0884579,0.0001502,53.2156,82.2083,96.5493,263.5671,4.6101e-05,4.46e-06,0.0,0 STARLINK-3912,1 52502U 22049BD  24068.36174074  .00000446  00000-0  46101-4 0  9993,2 52502  53.2156  82.2083 0001502  96.5493 263.5671 15.08845790102128,6917.863,95.437,540.767,538.689,0.0
52502.0,STARLINK-3912,PAYLOAD,2024-03-08 18:13:13,15.08844825,0.0001426,53.218,80.4215,99.2768,260.8385,2.9019e-05,1.74e-06,0.0,0 STARLINK-3912,1 52502U 22049BD  24068.75918253  .00000174  00000-0  29019-4 0  9998,2 52502  53.2180  80.4215 0001426  99.2768 260.8385 15.08844825102188,6917.866,95.437,540.717,538.744,0.0
52502.0,STARLINK-3912,PAYLOAD,2024-03-09 05:20:54,15.08847695,0.0001643,53.2177,78.3391,106.9049,253.2124,0.00016064,2.27e-05,0.0,0 STARLINK-3912,1 52502U 22049BD  24069.22285859  .00002270  00000-0  16064-3 0  9994,2 52502  53.2177  78.3391 0001643 106.9049 253.2124 15.08847695102415,6917.857,95.437,540.858,538.585,0.0
52502.0,STARLINK-3912,PAYLOAD,2024-03-09 06:56:18,15.08848916,0.0001363,53.2173,78.0416,90.5592,269.5556,0.00024721,3.65e-05,0.0,0 STARLINK-3912,1 52502U 22049BD  24069.28910016  .00003650  00000-0  24721-3 0  9992,2 52502  53.2173  78.0416 0001363  90.5592 269.5556 15.08848916102265,6917.853,95.437,540.661,538.775,0.0
52502.0,STARLINK-3912,PAYLOAD,2024-03-09 18:04:00,15.08840488,0.0001052,53.2165,75.9603,102.0194,258.0916,0.00011645,1.566e-05,0.0,0 STARLINK-3912,1 52502U 22049BD  24069.75278238  .00001566  00000-0  11645-3 0  9992,2 52502  53.2165  75.9603 0001052 102.0194 258.0916 15.08840488102496,6917.879,95.438,540.472,539.016,0.0
52502.0,STARLINK-3912,PAYLOAD,2024-03-10 06:47:05,15.08848637,0.000127,53.2167,73.5814,102.2105,257.9029,0.00016328,2.312e-05,0.0,0 STARLINK-3912,1 52502U 22049BD  24070.28269810  .00002312  00000-0  16328-3 0  9991,2 52502  53.2167  73.5814 0001270 102.2105 257.9029 15.08848637102411,6917.854,95.437,540.598,538.84,0.0
52502.0,STARLINK-3912,PAYLOAD,2024-03-11 05:02:27,15.08877288,5.85e-05,53.2174,69.4167,81.164,278.9419,-0.00056081,-9.211e-05,0.0,0 STARLINK-3912,1 52502U 22049BD  24071.21004336 -.00009211  00000-0 -56081-3 0  9992,2 52502  53.2174  69.4167 0000585  81.1640 278.9419 15.08877288102714,6917.766,95.435,540.036,539.227,0.0
52502.0,STARLINK-3912,PAYLOAD,2024-03-11 06:37:52,15.08837807,0.0001222,53.2166,69.1186,98.2091,261.904,0.00012895,1.765e-05,0.0,0 STARLINK-3912,1 52502U 22049BD  24071.27630368  .00001765  00000-0  12895-3 0  9997,2 52502  53.2166  69.1186 0001222  98.2091 261.9040 15.08837807102727,6917.887,95.438,540.597,538.907,0.0
52502.0,STARLINK-3912,PAYLOAD,2024-03-12 04:53:17,15.08835306,0.0001514,53.2175,64.9585,97.0971,263.0193,1.2936e-05,-8.2e-07,0.0,0 STARLINK-3912,1 52502U 22049BD  24072.20366993 -.00000082  00000-0  12936-4 0  9990,2 52502  53.2175  64.9585 0001514  97.0971 263.0193 15.08835306102860,6917.895,95.438,540.807,538.712,0.0
52502.0,STARLINK-3912,PAYLOAD,2024-03-12 16:00:58,15.0884121,0.0001494,53.2175,62.876,94.4575,265.6588,2.5993e-05,1.26e-06,0.0,0 STARLINK-3912,1 52502U 22049BD  24072.66734632  .00000126  00000-0  25993-4 0  9994,2 52502  53.2175  62.8760 0001494  94.4575 265.6588 15.08841210102777,6917.877,95.437,540.775,538.708,0.0
52502.0,STARLINK-3912,PAYLOAD,2024-03-13 06:19:26,15.08845753,0.0001558,53.2174,60.2046,106.2821,253.8343,0.0001813,2.599e-05,0.0,0 STARLINK-3912,1 52502U 22049BD  24073.26350034  .00002599  00000-0  18130-3 0  9991,2 52502  53.2174  60.2046 0001558 106.2821 253.8343 15.08845753103025,6917.863,95.437,540.806,538.65,0.0
52502.0,STARLINK-3912,PAYLOAD,2024-03-13 09:30:12,15.08852277,0.000158,53.2187,59.6079,103.798,256.3188,0.00022249,3.256e-05,0.0,0 STARLINK-3912,1 52502U 22049BD  24073.39597476  .00003256  00000-0  22249-3 0  9995,2 52502  53.2187  59.6079 0001580 103.7980 256.3188 15.08852277102887,6917.843,95.437,540.801,538.615,0.0
52502.0,STARLINK-3912,PAYLOAD,2024-03-13 22:13:18,15.08843571,0.0002357,53.2163,57.2263,78.5179,281.6077,0.0001259,1.716e-05,0.0,0 STARLINK-3912,1 52502U 22049BD  24073.92590750  .00001716  00000-0  12590-3 0  9999,2 52502  53.2163  57.2263 0002357  78.5179 281.6077 15.08843571102966,6917.869,95.437,541.365,538.104,0.0
52502.0,STARLINK-3912,PAYLOAD,2024-03-14 04:34:51,15.0883748,0.0001717,53.2183,56.0416,109.4843,250.6335,3.1254e-05,2.09e-06,0.0,0 STARLINK-3912,1 52502U 22049BD  24074.19087127  .00000209  00000-0  31254-4 0  9993,2 52502  53.2183  56.0416 0001717 109.4843 250.6335 15.08837480103164,6917.888,95.438,540.941,538.565,0.0
52502.0,STARLINK-3912,PAYLOAD,2024-03-14 06:10:14,15.08839041,0.0001669,53.2181,55.7443,107.5892,252.5282,4.0558e-05,3.57e-06,0.0,0 STARLINK-3912,1 52502U 22049BD  24074.25711009  .00000357  00000-0  40558-4 0  9994,2 52502  53.2181  55.7443 0001669 107.5892 252.5282 15.08839041103018,6917.883,95.438,540.903,538.594,0.0
52502.0,STARLINK-3912,PAYLOAD,2024-03-14 22:04:05,15.08834908,0.0001325,53.2164,52.7659,97.1467,262.9675,1.7978e-05,-2e-08,0.0,0 STARLINK-3912,1 52502U 22049BD  24074.91951301 -.00000002  00000-0  17978-4 0  9996,2 52502  53.2164  52.7659 0001325  97.1467 262.9675 15.08834908103115,6917.896,95.438,540.678,538.844,0.0
52502.0,STARLINK-3912,PAYLOAD,2024-03-15 07:36:23,15.08850688,0.0001495,53.2174,50.9827,97.1845,262.9317,-2.4663e-05,-6.81e-06,0.0,0 STARLINK-3912,1 52502U 22049BD  24075.31694423 -.00000681  00000-0 -24663-4 0  9993,2 52502  53.2174  50.9827 0001495  97.1845 262.9317 15.08850688103331,6917.848,95.437,540.747,538.679,0.0
52502.0,STARLINK-3912,PAYLOAD,2024-03-15 21:54:52,15.08841702,0.0001422,53.2169,48.3054,94.3439,265.7716,4.9327e-05,4.97e-06,0.0,0 STARLINK-3912,1 52502U 22049BD  24075.91310699  .00000497  00000-0  49327-4 0  9996,2 52502  53.2169  48.3054 0001422  94.3439 265.7716 15.08841702103269,6917.875,95.437,540.724,538.756,0.0
52502.0,STARLINK-3912,PAYLOAD,2024-03-16 04:16:25,15.0884208,0.0001496,53.2174,47.1163,108.0984,252.0171,7.3925e-05,8.89e-06,0.0,0 STARLINK-3912,1 52502U 22049BD  24076.17806718  .00000889  00000-0  73925-4 0  9993,2 52502  53.2174  47.1163 0001496 108.0984 252.0171 15.08842080103468,6917.874,95.437,540.774,538.704,0.0
52502.0,STARLINK-3912,PAYLOAD,2024-03-16 07:27:10,15.08846098,0.0001531,53.2174,46.521,113.7858,246.3294,9.5838e-05,1.238e-05,0.0,0 STARLINK-3912,1 52502U 22049BD  24076.31054389  .00001238  00000-0  95838-4 0  9994,2 52502  53.2174  46.5210 0001531 113.7858 246.3294 15.08846098103327,6917.862,95.437,540.786,538.668,0.0
52502.0,STARLINK-3912,PAYLOAD,2024-03-17 04:07:12,15.0883954,0.0001697,53.2187,42.6557,113.9592,246.1578,4.9941e-05,5.07e-06,0.0,0 STARLINK-3912,1 52502U 22049BD  24077.17167100  .00000507  00000-0  49941-4 0  9997,2 52502  53.2187  42.6557 0001697 113.9592 246.1578 15.08839540103611,6917.882,95.438,540.921,538.573,0.0
52502.0,STARLINK-3912,PAYLOAD,2024-03-17 21:36:27,15.08807457,0.0001871,53.2203,39.3807,119.3103,240.8076,0.0005465,8.413e-05,0.0,0 STARLINK-3912,1 52502U 22049BD  24077.90031562  .00008413  00000-0  54650-3 0  9996,2 52502  53.2203  39.3807 0001871 119.3103 240.8076 15.08807457103721,6917.98,95.44,541.139,538.551,0.0
52502.0,STARLINK-3912,PAYLOAD,2024-03-18 03:57:58,15.08846099,0.0001792,53.2194,38.1958,118.1022,242.0151,8.8594e-05,1.122e-05,0.0,0 STARLINK-3912,1 52502U 22049BD  24078.16526480  .00001122  00000-0  88594-4 0  9998,2 52502  53.2194  38.1958 0001792 118.1022 242.0151 15.08846099103760,6917.862,95.437,540.966,538.487,0.0
52502.0,STARLINK-3912,PAYLOAD,2024-03-19 06:59:31,15.08855536,0.0001461,53.2182,33.1384,107.6322,252.483,1.6497e-05,-2.5e-07,0.0,0 STARLINK-3912,1 52502U 22049BD  24079.29134052 -.00000025  00000-0  16497-4 0  9998,2 52502  53.2182  33.1384 0001461 107.6322 252.4830 15.08855536103770,6917.833,95.437,540.709,538.687,0.0
52502.0,STARLINK-3912,PAYLOAD,2024-03-19 21:18:00,15.08847534,0.0001554,53.2182,30.4612,110.2591,249.8568,6.2936e-05,7.14e-06,0.0,0 STARLINK-3912,1 52502U 22049BD  24079.88750316  .00000714  00000-0  62936-4 0  9993,2 52502  53.2182  30.4612 0001554 110.2591 249.8568 15.08847534104021,6917.857,95.437,540.797,538.647,0.0
52502.0,STARLINK-3912,PAYLOAD,2024-03-20 03:39:32,15.08857754,0.0001524,53.2192,29.2697,113.739,246.3762,0.00010799,1.432e-05,0.0,0 STARLINK-3912,1 52502U 22049BD  24080.15245463  .00001432  00000-0  10799-3 0  9994,2 52502  53.2192  29.2697 0001524 113.7390 246.3762 15.08857754104060,6917.826,95.436,540.745,538.637,0.0
